[{"OBJECT_NAME":"STARLINK-34321","OBJECT_ID":"2025-120M","EPOCH":"2026-03-09T10:56:32.298432","MEAN_MOTION":15.30199823,"ECCENTRICITY":0.00011721,"INCLINATION":53.1592,"RA_OF_ASC_NODE":117.5427,"ARG_OF_PERICENTER":90.9956,"MEAN_ANOMALY":269.1179,"EPHEMERIS_TYPE":0,"CLASSIFICATION_TYPE":"U","NORAD_CAT_ID":64267,"ELEMENT_SET_NO":999,"REV_AT_EPOCH":4388,"BSTAR":0.00049717488,"MEAN_MOTION_DOT":0.00014394,"MEAN_MOTION_DDOT":0},{"OBJECT_NAME":"239ALFEROV (RS61S)","OBJECT_ID":"2025-155F","EPOCH":"2026-03-09T21:46:33.382848","MEAN_MOTION":15.29933217,"ECCENTRICITY":0.00084878,"INCLINATION":97.4469,"RA_OF_ASC_NODE":37.6373,"ARG_OF_PERICENTER":151.5904,"MEAN_ANOMALY":208.58,"EPHEMERIS_TYPE":0,"CLASSIFICATION_TYPE":"U","NORAD_CAT_ID":64881,"ELEMENT_SET_NO":999,"REV_AT_EPOCH":6561,"BSTAR":0.00067233359,"MEAN_MOTION_DOT":0.00019457,"MEAN_MOTION_DDOT":0}]
